KUIPER-00127            
1 65956U 25228K   26066.11532868  .00003647  00000+0  55068-3 0  9990
2 65956  51.9012   3.3488 0001274 184.6773 175.4177 14.76373954 22978
KUIPER-00128            
1 65957U 25228L   26066.06965773  .00006079  00000+0  82652-3 0  9991
2 65957  51.9032   4.7051 0000787  94.6214 265.4839 14.79890485 22948
KUIPER-00129            
1 65958U 25228M   26066.17643444 -.00001010  00000+0 -10349-3 0  9998
2 65958  51.9026 359.2179 0000826  84.4278 275.6778 14.79927661 23035
KUIPER-00130            
1 65959U 25228N   26066.07250578  .00005977  00000+0  81041-3 0  9991
2 65959  51.9041   2.1828 0001271  95.2692 264.8416 14.80037881 13275
KUIPER-00134            
1 65960U 25228P   26066.11816230  .00042871  00000+0  11141-2 0  9998
2 65960  51.8760 332.8393 0005097 316.9087  43.1501 15.38507446 23395
KUIPER-00135            
1 65961U 25228Q   26066.10620270  .00006270  00000+0  85019-3 0  9994
2 65961  51.9038   2.0957 0001058  88.3060 271.8023 14.79958399 22985
KUIPER-00136            
1 65962U 25228R   26066.00756950  .00006040  00000+0  82123-3 0  9997
2 65962  51.9019   0.0053 0001468 101.6042 258.5085 14.79902929 23006
KUIPER-00137            
1 65963U 25228S   26066.16670139  .00000443  00000+0  85586-4 0  9997
2 65963  51.9038 356.7242 0001728  50.6690  84.3584 14.80824922  4332
KUIPER-00138            
1 65964U 25228T   26066.04673278  .00005917  00000+0  80460-3 0  9998
2 65964  51.9013 354.7806 0000884  96.7786 263.3277 14.79929294 23086
KUIPER-00140            
1 65965U 25228U   26066.17914139  .00008838  00000+0  11874-2 0  9994
2 65965  51.9025 356.7764 0000981  89.9489 270.1585 14.79913505 23061
KUIPER-00141            
1 65966U 25228V   26066.18446649  .00005727  00000+0  77790-3 0  9996
2 65966  51.9043 351.7640 0000682  57.8214 302.2814 14.80025991 23133
KUIPER-00146            
1 65967U 25228W   26066.05653741  .00003630  00000+0  54692-3 0  9993
2 65967  51.9037 354.5927 0001089 106.1936 253.9144 14.76475788 23087
KUIPER-00149            
1 65968U 25228X   26065.98455906 -.00008744  00000+0 -11182-2 0  9997
2 65968  51.9036 350.0660 0001674  66.4788 293.6350 14.79977280 23149
KUIPER-00154            
1 65969U 25228Y   26066.15609203  .00004116  00000+0  56845-3 0  9992
2 65969  51.9013 346.8108 0000762 102.9305 257.1743 14.79943255 23206
KUIPER-00157            
1 65970U 25228Z   26066.15343367 -.00004473  00000+0 -55871-3 0  9996
2 65970  51.9032 349.4329 0001002  60.5060 299.6002 14.79890430 23168
KUIPER-00144            
1 67133U 25301A   26066.18491293  .00017888  00000+0  47611-3 0  9991
2 67133  51.8685  77.1880 0007797  19.6276 340.5009 15.38250843 13359
KUIPER-00164            
1 67134U 25301B   26066.16670139 -.01908740  00000+0 -11400+0 0  9990
2 67134  51.8805  79.0191 0004906  58.5462  19.0552 15.14174023  5854
