[{"OBJECT_NAME":"KUIPER-00127","OBJECT_ID":"2025-228K","EPOCH":"2026-03-07T02:46:04.397952","MEAN_MOTION":14.76373954,"ECCENTRICITY":0.0001274,"INCLINATION":51.9012,"RA_OF_ASC_NODE":3.3488,"ARG_OF_PERICENTER":184.6773,"MEAN_ANOMALY":175.4177,"EPHEMERIS_TYPE":0,"CLASSIFICATION_TYPE":"U","NORAD_CAT_ID":65956,"ELEMENT_SET_NO":999,"REV_AT_EPOCH":2297,"BSTAR":0.00055068,"MEAN_MOTION_DOT":3.647e-5,"MEAN_MOTION_DDOT":0},{"OBJECT_NAME":"KUIPER-00128","OBJECT_ID":"2025-228L","EPOCH":"2026-03-07T01:40:18.427872","MEAN_MOTION":14.79890485,"ECCENTRICITY":7.87e-5,"INCLINATION":51.9032,"RA_OF_ASC_NODE":4.7051,"ARG_OF_PERICENTER":94.6214,"MEAN_ANOMALY":265.4839,"EPHEMERIS_TYPE":0,"CLASSIFICATION_TYPE":"U","NORAD_CAT_ID":65957,"ELEMENT_SET_NO":999,"REV_AT_EPOCH":2294,"BSTAR":0.00082652,"MEAN_MOTION_DOT":6.079e-5,"MEAN_MOTION_DDOT":0},{"OBJECT_NAME":"KUIPER-00129","OBJECT_ID":"2025-228M","EPOCH":"2026-03-07T04:14:03.935616","MEAN_MOTION":14.79927661,"ECCENTRICITY":8.26e-5,"INCLINATION":51.9026,"RA_OF_ASC_NODE":359.2179,"ARG_OF_PERICENTER":84.4278,"MEAN_ANOMALY":275.6778,"EPHEMERIS_TYPE":0,"CLASSIFICATION_TYPE":"U","NORAD_CAT_ID":65958,"ELEMENT_SET_NO":999,"REV_AT_EPOCH":2303,"BSTAR":-0.00010349,"MEAN_MOTION_DOT":-1.01e-5,"MEAN_MOTION_DDOT":0},{"OBJECT_NAME":"KUIPER-00130","OBJECT_ID":"2025-228N","EPOCH":"2026-03-07T01:44:24.499392","MEAN_MOTION":14.80037881,"ECCENTRICITY":0.0001271,"INCLINATION":51.9041,"RA_OF_ASC_NODE":2.1828,"ARG_OF_PERICENTER":95.2692,"MEAN_ANOMALY":264.8416,"EPHEMERIS_TYPE":0,"CLASSIFICATION_TYPE":"U","NORAD_CAT_ID":65959,"ELEMENT_SET_NO":999,"REV_AT_EPOCH":1327,"BSTAR":0.00081041,"MEAN_MOTION_DOT":5.977e-5,"MEAN_MOTION_DDOT":0},{"OBJECT_NAME":"KUIPER-00134","OBJECT_ID":"2025-228P","EPOCH":"2026-03-07T02:50:09.222720","MEAN_MOTION":15.38507446,"ECCENTRICITY":0.0005097,"INCLINATION":51.876,"RA_OF_ASC_NODE":332.8393,"ARG_OF_PERICENTER":316.9087,"MEAN_ANOMALY":43.1501,"EPHEMERIS_TYPE":0,"CLASSIFICATION_TYPE":"U","NORAD_CAT_ID":65960,"ELEMENT_SET_NO":999,"REV_AT_EPOCH":2339,"BSTAR":0.0011141,"MEAN_MOTION_DOT":0.00042871,"MEAN_MOTION_DDOT":0},{"OBJECT_NAME":"KUIPER-00135","OBJECT_ID":"2025-228Q","EPOCH":"2026-03-07T02:32:55.913280","MEAN_MOTION":14.79958399,"ECCENTRICITY":0.0001058,"INCLINATION":51.9038,"RA_OF_ASC_NODE":2.0957,"ARG_OF_PERICENTER":88.306,"MEAN_ANOMALY":271.8023,"EPHEMERIS_TYPE":0,"CLASSIFICATION_TYPE":"U","NORAD_CAT_ID":65961,"ELEMENT_SET_NO":999,"REV_AT_EPOCH":2298,"BSTAR":0.00085019,"MEAN_MOTION_DOT":6.27e-5,"MEAN_MOTION_DDOT":0},{"OBJECT_NAME":"KUIPER-00136","OBJECT_ID":"2025-228R","EPOCH":"2026-03-07T00:10:54.004800","MEAN_MOTION":14.79902929,"ECCENTRICITY":0.0001468,"INCLINATION":51.9019,"RA_OF_ASC_NODE":0.0053,"ARG_OF_PERICENTER":101.6042,"MEAN_ANOMALY":258.5085,"EPHEMERIS_TYPE":0,"CLASSIFICATION_TYPE":"U","NORAD_CAT_ID":65962,"ELEMENT_SET_NO":999,"REV_AT_EPOCH":2300,"BSTAR":0.00082123,"MEAN_MOTION_DOT":6.04e-5,"MEAN_MOTION_DDOT":0},{"OBJECT_NAME":"KUIPER-00137","OBJECT_ID":"2025-228S","EPOCH":"2026-03-07T04:00:03.000096","MEAN_MOTION":14.80824922,"ECCENTRICITY":0.0001728,"INCLINATION":51.9038,"RA_OF_ASC_NODE":356.7242,"ARG_OF_PERICENTER":50.669,"MEAN_ANOMALY":84.3584,"EPHEMERIS_TYPE":0,"CLASSIFICATION_TYPE":"U","NORAD_CAT_ID":65963,"ELEMENT_SET_NO":999,"REV_AT_EPOCH":433,"BSTAR":8.5586e-5,"MEAN_MOTION_DOT":4.43e-6,"MEAN_MOTION_DDOT":0},{"OBJECT_NAME":"KUIPER-00138","OBJECT_ID":"2025-228T","EPOCH":"2026-03-07T01:07:17.712192","MEAN_MOTION":14.79929294,"ECCENTRICITY":8.84e-5,"INCLINATION":51.9013,"RA_OF_ASC_NODE":354.7806,"ARG_OF_PERICENTER":96.7786,"MEAN_ANOMALY":263.3277,"EPHEMERIS_TYPE":0,"CLASSIFICATION_TYPE":"U","NORAD_CAT_ID":65964,"ELEMENT_SET_NO":999,"REV_AT_EPOCH":2308,"BSTAR":0.0008046,"MEAN_MOTION_DOT":5.917e-5,"MEAN_MOTION_DDOT":0},{"OBJECT_NAME":"KUIPER-00140","OBJECT_ID":"2025-228U","EPOCH":"2026-03-07T04:17:57.816096","MEAN_MOTION":14.79913505,"ECCENTRICITY":9.81e-5,"INCLINATION":51.9025,"RA_OF_ASC_NODE":356.7764,"ARG_OF_PERICENTER":89.9489,"MEAN_ANOMALY":270.1585,"EPHEMERIS_TYPE":0,"CLASSIFICATION_TYPE":"U","NORAD_CAT_ID":65965,"ELEMENT_SET_NO":999,"REV_AT_EPOCH":2306,"BSTAR":0.0011874,"MEAN_MOTION_DOT":8.838e-5,"MEAN_MOTION_DDOT":0},{"OBJECT_NAME":"KUIPER-00141","OBJECT_ID":"2025-228V","EPOCH":"2026-03-07T04:25:37.904736","MEAN_MOTION":14.80025991,"ECCENTRICITY":6.82e-5,"INCLINATION":51.9043,"RA_OF_ASC_NODE":351.764,"ARG_OF_PERICENTER":57.8214,"MEAN_ANOMALY":302.2814,"EPHEMERIS_TYPE":0,"CLASSIFICATION_TYPE":"U","NORAD_CAT_ID":65966,"ELEMENT_SET_NO":999,"REV_AT_EPOCH":2313,"BSTAR":0.0007779,"MEAN_MOTION_DOT":5.727e-5,"MEAN_MOTION_DDOT":0},{"OBJECT_NAME":"KUIPER-00146","OBJECT_ID":"2025-228W","EPOCH":"2026-03-07T01:21:24.832224","MEAN_MOTION":14.76475788,"ECCENTRICITY":0.0001089,"INCLINATION":51.9037,"RA_OF_ASC_NODE":354.5927,"ARG_OF_PERICENTER":106.1936,"MEAN_ANOMALY":253.9144,"EPHEMERIS_TYPE":0,"CLASSIFICATION_TYPE":"U","NORAD_CAT_ID":65967,"ELEMENT_SET_NO":999,"REV_AT_EPOCH":2308,"BSTAR":0.00054692,"MEAN_MOTION_DOT":3.63e-5,"MEAN_MOTION_DDOT":0},{"OBJECT_NAME":"KUIPER-00149","OBJECT_ID":"2025-228X","EPOCH":"2026-03-06T23:37:45.902784","MEAN_MOTION":14.7997728,"ECCENTRICITY":0.0001674,"INCLINATION":51.9036,"RA_OF_ASC_NODE":350.066,"ARG_OF_PERICENTER":66.4788,"MEAN_ANOMALY":293.635,"EPHEMERIS_TYPE":0,"CLASSIFICATION_TYPE":"U","NORAD_CAT_ID":65968,"ELEMENT_SET_NO":999,"REV_AT_EPOCH":2314,"BSTAR":-0.0011182,"MEAN_MOTION_DOT":-8.744e-5,"MEAN_MOTION_DDOT":0},{"OBJECT_NAME":"KUIPER-00154","OBJECT_ID":"2025-228Y","EPOCH":"2026-03-07T03:44:46.351392","MEAN_MOTION":14.79943255,"ECCENTRICITY":7.62e-5,"INCLINATION":51.9013,"RA_OF_ASC_NODE":346.8108,"ARG_OF_PERICENTER":102.9305,"MEAN_ANOMALY":257.1743,"EPHEMERIS_TYPE":0,"CLASSIFICATION_TYPE":"U","NORAD_CAT_ID":65969,"ELEMENT_SET_NO":999,"REV_AT_EPOCH":2320,"BSTAR":0.00056845,"MEAN_MOTION_DOT":4.116e-5,"MEAN_MOTION_DDOT":0},{"OBJECT_NAME":"KUIPER-00157","OBJECT_ID":"2025-228Z","EPOCH":"2026-03-07T03:40:56.669088","MEAN_MOTION":14.7989043,"ECCENTRICITY":0.0001002,"INCLINATION":51.9032,"RA_OF_ASC_NODE":349.4329,"ARG_OF_PERICENTER":60.506,"MEAN_ANOMALY":299.6002,"EPHEMERIS_TYPE":0,"CLASSIFICATION_TYPE":"U","NORAD_CAT_ID":65970,"ELEMENT_SET_NO":999,"REV_AT_EPOCH":2316,"BSTAR":-0.00055871,"MEAN_MOTION_DOT":-4.473e-5,"MEAN_MOTION_DDOT":0},{"OBJECT_NAME":"KUIPER-00144","OBJECT_ID":"2025-301A","EPOCH":"2026-03-07T04:26:16.477152","MEAN_MOTION":15.38250843,"ECCENTRICITY":0.0007797,"INCLINATION":51.8685,"RA_OF_ASC_NODE":77.188,"ARG_OF_PERICENTER":19.6276,"MEAN_ANOMALY":340.5009,"EPHEMERIS_TYPE":0,"CLASSIFICATION_TYPE":"U","NORAD_CAT_ID":67133,"ELEMENT_SET_NO":999,"REV_AT_EPOCH":1335,"BSTAR":0.00047611,"MEAN_MOTION_DOT":0.00017888,"MEAN_MOTION_DDOT":0},{"OBJECT_NAME":"KUIPER-00164","OBJECT_ID":"2025-301B","EPOCH":"2026-03-07T04:00:03.000096","MEAN_MOTION":15.14174023,"ECCENTRICITY":0.0004906,"INCLINATION":51.8805,"RA_OF_ASC_NODE":79.0191,"ARG_OF_PERICENTER":58.5462,"MEAN_ANOMALY":19.0552,"EPHEMERIS_TYPE":0,"CLASSIFICATION_TYPE":"U","NORAD_CAT_ID":67134,"ELEMENT_SET_NO":999,"REV_AT_EPOCH":585,"BSTAR":-0.114,"MEAN_MOTION_DOT":-0.0190874,"MEAN_MOTION_DDOT":0}]
